[{"OBJECT_NAME":"STARLINK-5988","OBJECT_ID":"2023-058D","EPOCH":"2026-03-09T22:39:15.603840","MEAN_MOTION":15.01262386,"ECCENTRICITY":0.0002859,"INCLINATION":97.6044,"RA_OF_ASC_NODE":70.3858,"ARG_OF_PERICENTER":67.357,"MEAN_ANOMALY":292.7956,"EPHEMERIS_TYPE":0,"CLASSIFICATION_TYPE":"U","NORAD_CAT_ID":56320,"ELEMENT_SET_NO":999,"REV_AT_EPOCH":15782,"BSTAR":5.4072305e-5,"MEAN_MOTION_DOT":6.36e-6,"MEAN_MOTION_DDOT":0},{"OBJECT_NAME":"D-SAT","OBJECT_ID":"2017-036AF","EPOCH":"2026-03-09T22:00:14.910336","MEAN_MOTION":15.15529522,"ECCENTRICITY":0.00852401,"INCLINATION":97.5487,"RA_OF_ASC_NODE":48.252,"ARG_OF_PERICENTER":144.4633,"MEAN_ANOMALY":216.2319,"EPHEMERIS_TYPE":0,"CLASSIFICATION_TYPE":"U","NORAD_CAT_ID":42794,"ELEMENT_SET_NO":999,"REV_AT_EPOCH":47581,"BSTAR":0.00038655305,"MEAN_MOTION_DOT":7.964e-5,"MEAN_MOTION_DDOT":0}]
